{
  "type": "FeatureCollection",
  "features": [
    {
      "type": "Feature",
      "properties": {
        "name": "Punjab",
        "NAME": "Punjab"
      },
      "geometry": {
        "type": "Polygon",
        "coordinates": [[
          [70.0, 28.0],
          [75.0, 28.0],
          [75.0, 33.0],
          [70.0, 33.0],
          [70.0, 28.0]
        ]]
      }
    },
    {
      "type": "Feature",
      "properties": {
        "name": "Sindh",
        "NAME": "Sindh"
      },
      "geometry": {
        "type": "Polygon",
        "coordinates": [[
          [66.0, 23.0],
          [71.0, 23.0],
          [71.0, 28.0],
          [66.0, 28.0],
          [66.0, 23.0]
        ]]
      }
    },
    {
      "type": "Feature",
      "properties": {
        "name": "Khyber Pakhtunkhwa",
        "NAME": "Khyber Pakhtunkhwa"
      },
      "geometry": {
        "type": "Polygon",
        "coordinates": [[
          [70.0, 31.0],
          [75.0, 31.0],
          [75.0, 36.0],
          [70.0, 36.0],
          [70.0, 31.0]
        ]]
      }
    },
    {
      "type": "Feature",
      "properties": {
        "name": "Balochistan",
        "NAME": "Balochistan"
      },
      "geometry": {
        "type": "Polygon",
        "coordinates": [[
          [60.0, 24.0],
          [70.0, 24.0],
          [70.0, 32.0],
          [60.0, 32.0],
          [60.0, 24.0]
        ]]
      }
    },
    {
      "type": "Feature",
      "properties": {
        "name": "Islamabad Capital Territory",
        "NAME": "Islamabad Capital Territory"
      },
      "geometry": {
        "type": "Polygon",
        "coordinates": [[
          [72.8, 33.5],
          [73.2, 33.5],
          [73.2, 33.8],
          [72.8, 33.8],
          [72.8, 33.5]
        ]]
      }
    }
  ]
}

